COSMOS 2251 DEB         
1 34967U 93036AEW 26160.05289397  .00001333  00000+0  38578-3 0  9991
2 34967  73.9932 280.9865 0039752  25.9067 334.4068 14.45032295675323
COSMOS 2251 DEB         
1 34968U 93036AEX 26160.04682457  .00000366  00000+0  79391-4 0  9999
2 34968  74.0392 267.0863 0087023 342.3342  17.4801 14.59676887910798
COSMOS 2251 DEB         
1 34969U 93036AEY 26157.46998051  .00000725  00000+0  26830-3 0  9990
2 34969  74.0142  61.9463 0074482 153.0577 207.4473 14.32543596676539
COSMOS 2251 DEB         
1 34971U 93036AFA 26160.18614535  .00000773  00000+0  17704-3 0  9991
2 34971  73.9785 305.5744 0069203 128.4389  47.1609 14.55925473687696
COSMOS 2251 DEB         
1 34972U 93036AFB 26157.50419334  .00008831  00000+0  12645-2 0  9995
2 34972  73.9849  65.4505 0035417 176.6790 356.0640 14.76275065902411
COSMOS 2251 DEB         
1 34976U 93036AFF 26160.18434455  .00004114  00000+0  54488-3 0  9990
2 34976  74.0557 316.1341 0044173 319.0592 218.4326 14.79562033909101
COSMOS 2251 DEB         
1 34979U 93036AFJ 26160.01054122  .00004822  00000+0  59466-3 0  9991
2 34979  74.0393 275.5880 0046943 310.8027  48.9082 14.82391247908595
COSMOS 2251 DEB         
1 34990U 93036AFN 26149.68911385  .00001247  00000+0  38144-3 0  9995
2 34990  74.0447 299.8681 0015925 325.5241  34.4881 14.42803652897681
COSMOS 2251 DEB         
1 34997U 93036AFV 26157.77256168  .00003998  00000+0  10443-2 0  9998
2 34997  73.8802 339.2541 0090072 278.9026  80.1943 14.47367162732920
COSMOS 2251 DEB         
1 34998U 93036AFW 26158.83173258  .00001485  00000+0  38932-3 0  9998
2 34998  74.0083 187.0794 0022151 290.0699 248.6250 14.50005516899863
COSMOS 2251 DEB         
1 35012U 93036AFZ 26160.19717441  .00000281  00000+0  84140-4 0  9992
2 35012  74.0189 138.6102 0081507 235.4932 123.8511 14.45726375901401
COSMOS 2251 DEB         
1 35014U 93036AGB 26157.98227522  .00009943  00000+0  13462-2 0  9994
2 35014  73.9972  57.0522 0010708 169.7576 190.3820 14.79023139739393
COSMOS 2251 DEB         
1 35015U 93036AGC 26158.57133475  .00002975  00000+0  78191-3 0  9993
2 35015  73.9478 262.2080 0073836  89.6634 289.2472 14.47951068679996
COSMOS 2251 DEB         
1 35016U 93036AGD 26157.24009657  .00001139  00000+0  37814-3 0  9999
2 35016  73.9299 330.4597 0112828 208.9940 331.5197 14.35439934893005
COSMOS 2251 DEB         
1 35018U 93036AGF 26159.37827476  .00001162  00000+0  92865-3 0  9997
2 35018  73.9761 177.2951 0344025  50.2860 312.8047 13.67629616856149
COSMOS 2251 DEB         
1 35020U 93036AGH 26159.88550329  .00000476  00000+0  93748-4 0  9995
2 35020  74.0456 217.5774 0091022 286.2484  72.8684 14.63079952908434
COSMOS 2251 DEB         
1 35022U 93036AGK 26158.78538967  .00002345  00000+0  47092-3 0  9996
2 35022  74.0279 343.1937 0047053 136.7523 223.7354 14.61559482617295
COSMOS 2251 DEB         
1 35023U 93036AGL 26159.91149707  .00014304  00000+0  10739-2 0  9998
2 35023  74.0350 211.0378 0030137 251.0408 164.8765 15.02272867909498
COSMOS 2251 DEB         
1 35025U 93036AGN 26160.00718317  .00001652  00000+0  24470-3 0  9991
2 35025  73.9378  73.3604 0083167 304.8762  54.4611 14.73739245912684
COSMOS 2251 DEB         
1 35026U 93036AGP 26158.79022172  .00000270  00000+0  68547-4 0  9991
2 35026  74.0468 344.5401 0082653  52.8650 325.9449 14.53732376907168
COSMOS 2251 DEB         
1 35028U 93036AGR 26158.08382006  .00000339  00000+0  79038-4 0  9993
2 35028  74.0387 296.2876 0082871  25.3289  95.0274 14.56722364908536
COSMOS 2251 DEB         
1 35031U 93036AGU 26158.64565684  .00000461  00000+0  15920-3 0  9999
2 35031  74.0386 293.2812 0019271 345.3749  14.6845 14.38480938678270
COSMOS 2251 DEB         
1 35032U 93036AGV 26159.00838259  .00003520  00000+0  71600-3 0  9998
2 35032  73.8514  25.4408 0066560 197.9715 230.6344 14.60083580902602
COSMOS 2251 DEB         
1 35033U 93036AGW 26159.83278302  .00001589  00000+0  40080-3 0  9998
2 35033  74.0257 201.1705 0015448 267.9391  92.0001 14.51853370685116
COSMOS 2251 DEB         
1 35038U 93036AHB 26158.49326567  .00004020  00000+0  15741-2 0  9999
2 35038  74.1059  84.6849 0109939  25.1260  94.1355 14.26505868880887
COSMOS 2251 DEB         
1 35043U 93036AHG 26158.44957186  .00019443  00000+0  20810-2 0  9995
2 35043  73.9477  54.5838 0083918 214.8900 144.6763 14.86079209700363
COSMOS 2251 DEB         
1 35045U 93036AHJ 26160.08310003  .00000836  00000+0  50223-3 0  9999
2 35045  73.7182  97.6346 0180698 312.7442  45.8601 14.00762134871409
COSMOS 2251 DEB         
1 35060U 93036AHP 26157.01910169  .00000915  00000+0  28645-3 0  9995
2 35060  74.0368 279.5343 0018539 324.7100  35.2827 14.41976121897681
COSMOS 2251 DEB         
1 35061U 93036AHQ 26159.15823764  .00002917  00000+0  49438-3 0  9994
2 35061  74.0455 322.6797 0040281  29.6727 330.6716 14.69218028911790
COSMOS 2251 DEB         
1 35062U 93036AHR 26155.30682871  .00002818  00000+0  11309-2 0  9995
2 35062  74.0769 141.5731 0124374  99.0916 262.4329 14.24509919879699
COSMOS 2251 DEB         
1 35065U 93036AHU 26157.54727455  .00001056  00000+0  30170-3 0  9995
2 35065  74.0190 225.9798 0020616 309.8481  50.0863 14.46268589708923
COSMOS 2251 DEB         
1 35071U 93036AJA 26149.36690542  .00011792  00000+0  74618-3 0  9992
2 35071  73.9296 187.6049 0063530  41.4613 319.1371 15.07352033700590
COSMOS 2251 DEB         
1 35073U 93036AJC 26159.73690722  .00044708  00000+0  21504-2 0  9994
2 35073  73.9861 322.2986 0014345  61.0437 299.2196 15.18490236701650
COSMOS 2251 DEB         
1 35284U 93036AJN 26157.18014917  .00000447  00000+0  15468-3 0  9996
2 35284  74.0500 301.3449 0017017 337.2045 200.1772 14.38499070680484
COSMOS 2251 DEB         
1 35287U 93036AJR 26159.11599714  .00000329  00000+0  12086-3 0  9999
2 35287  74.0306 310.1574 0017976   5.5447 114.8203 14.36515765894398
COSMOS 2251 DEB         
1 35288U 93036AJS 26159.37309254  .00003929  00000+0  68960-3 0  9997
2 35288  73.9507  30.7904 0037447 218.0966 141.7555 14.67616727904827
COSMOS 2251 DEB         
1 35290U 93036AJU 26160.00320678  .00010936  00000+0  12498-2 0  9995
2 35290  74.0031  65.6752 0007779 154.4816 205.6748 14.86089368906017
COSMOS 2251 DEB         
1 35433U 93036AKB 26139.04776399  .00000370  00000+0  13843-3 0  9996
2 35433  74.0356  50.1601 0025553  70.3763 305.1766 14.34994696888371
COSMOS 2251 DEB         
1 35434U 93036AKC 26158.98154881  .00001119  00000+0  45916-3 0  9995
2 35434  74.0406 253.5475 0086754 282.6081  76.5375 14.26242757886443
COSMOS 2251 DEB         
1 35435U 93036AKD 26159.56971126  .00014741  00000+0  17731-2 0  9998
2 35435  74.0087 112.4471 0011464 175.5921 304.4008 14.83896401901726
COSMOS 2251 DEB         
1 35439U 93036AKH 26159.85059975  .00001532  00000+0  93100-3 0  9992
2 35439  74.0163 189.3066 0241736 318.4730 225.9152 13.93628660864412
COSMOS 2251 DEB         
1 35440U 93036AKJ 26159.43636969  .00001674  00000+0  27579-3 0  9996
2 35440  74.0133 222.9766 0069655 319.6343  39.9669 14.69786819713754
COSMOS 2251 DEB         
1 35441U 93036AKK 26160.15040120  .00006781  00000+0  12473-2 0  9996
2 35441  74.1337 317.4479 0034284 154.2940 205.9943 14.65413274900418
COSMOS 2251 DEB         
1 35442U 93036AKL 26158.58432452  .00022249  00000+0  21739-2 0  9996
2 35442  74.0232 105.8283 0004081 165.9587 194.1710 14.92304596899843
COSMOS 2251 DEB         
1 35443U 93036AKM 26158.19298506  .00129754  00000+0  54183-2 0  9992
2 35443  73.9707 327.0398 0050815  66.9217 293.7326 15.21844342895385
COSMOS 2251 DEB         
1 35445U 93036AKP 26151.51877781  .00006632  00000+0  11538-2 0  9997
2 35445  74.0363 335.4645 0139130  21.3939 339.2963 14.62086001898086
COSMOS 2251 DEB         
1 35446U 93036AKQ 26157.79756560  .00000446  00000+0  10700-3 0  9993
2 35446  74.0469 345.2467 0074824  58.5497 302.2951 14.54804969905688
COSMOS 2251 DEB         
1 35448U 93036AKS 26160.12429976  .00002630  00000+0  60894-3 0  9990
2 35448  73.9019 109.0667 0012098 242.2596 117.7340 14.55602213899293
COSMOS 2251 DEB         
1 35451U 93036AKV 26151.22619250  .00491869  00000+0  27757-2 0  9997
2 35451  73.9147  87.4307 0020858 238.6583 121.2603 15.77457925700349
COSMOS 2251 DEB         
1 35453U 93036AKX 26156.06029250  .00002125  00000+0  68219-3 0  9993
2 35453  74.0082  58.5541 0068587 150.1791 210.3300 14.38696443887256
COSMOS 2251 DEB         
1 35455U 93036AKZ 26158.73915830  .00003620  00000+0  86804-3 0  9990
2 35455  74.0280 322.0888 0100209  24.0137 336.5648 14.50799075891094
COSMOS 2251 DEB         
1 35456U 93036ALA 26157.20062454  .00014100  00000+0  21234-2 0  9997
2 35456  73.9481 134.6701 0062629 300.8497  58.6523 14.73105381684566
COSMOS 2251 DEB         
1 35459U 93036ALD 26158.88685615  .00000554  00000+0  19298-3 0  9991
2 35459  73.8705 217.9427 0015579 129.5083 230.7450 14.37755359609077
COSMOS 2251 DEB         
1 35462U 93036ALG 26159.74410640  .00002147  00000+0  80110-3 0  9996
2 35462  74.0353 304.9982 0083638 298.6451  60.6306 14.30605468689250
COSMOS 2251 DEB         
1 35465U 93036ALK 26151.22332466  .00001158  00000+0  33287-3 0  9997
2 35465  73.9987 240.7892 0064242   0.8675 359.2581 14.44805787896895
COSMOS 2251 DEB         
1 35469U 93036ALP 26156.08545338  .00000360  00000+0  96932-4 0  9995
2 35469  74.0176  56.1156 0076847 168.7376 191.5528 14.49965799906388
COSMOS 2251 DEB         
1 35475U 93036ALV 26158.74053593  .00008227  00000+0  12629-2 0  9993
2 35475  74.0203 181.1007 0020000 219.3251 140.6471 14.73589028682214
COSMOS 2251 DEB         
1 35476U 93036ALW 26159.18538492  .00008808  00000+0  11551-2 0  9997
2 35476  73.9754  71.0878 0012250  23.0371 102.8776 14.80388286905091
COSMOS 2251 DEB         
1 35580U 93036ALX 26146.96814980  .00002015  00000+0  13431-2 0  9997
2 35580  73.9013 257.5538 0278759 231.4259 126.1597 13.84622006645430
